[Satellite]
VERSION=1.1
NAME=XW-2E
NICKNAME=XW-2E
TLE1=1 40909U 15049L   22342.48051970  .00012732  00000+0  47806-3 0  9990
TLE2=2 40909  97.4626 349.9351 0013105  80.8003  75.4963 15.27256045399935
STATUS=0
